STARLINK-2164           
1 47750U 21017AE  26068.56360510  .00016705  00000+0  57481-3 0  9998
2 47750  53.1593 194.1029 0001169  99.5970 260.5163 15.30202781277977
TEVEL2-3                
1 63218U 25052J   26068.64540225  .00020365  00000+0  69446-3 0  9991
2 63218  97.3994 324.7775 0004761 105.7353 254.4413 15.30377031 54855
